ELYSIUM STAR 2 & LFF    
1 43760U 18099C   24273.93726574  .00174003  00000+0  38062-2 0  9993
2 43760  97.5024 343.1212 0005992 241.9499 118.1143 15.43463980319283
